NOAA 16                 
1 26536U 00055A   24111.82010331  .00000372  00000+0  21943-3 0  9992
2 26536  98.5375 154.0250 0011225  45.4859 314.7230 14.13555547512473
